[{"OBJECT_NAME":"STARLINK-32225","OBJECT_ID":"2024-216E","EPOCH":"2026-03-09T21:15:00.072864","MEAN_MOTION":15.27580712,"ECCENTRICITY":0.00016271,"INCLINATION":43.0003,"RA_OF_ASC_NODE":255.3849,"ARG_OF_PERICENTER":272.0542,"MEAN_ANOMALY":88.0123,"EPHEMERIS_TYPE":0,"CLASSIFICATION_TYPE":"U","NORAD_CAT_ID":62036,"ELEMENT_SET_NO":999,"REV_AT_EPOCH":7397,"BSTAR":0.0011592871,"MEAN_MOTION_DOT":0.00031777,"MEAN_MOTION_DDOT":0},{"OBJECT_NAME":"GEOSCAN 5 (RS92S5)","OBJECT_ID":"2025-155R","EPOCH":"2026-03-09T22:01:07.273920","MEAN_MOTION":15.30265233,"ECCENTRICITY":0.00070849,"INCLINATION":97.4462,"RA_OF_ASC_NODE":37.7456,"ARG_OF_PERICENTER":154.5846,"MEAN_ANOMALY":205.5745,"EPHEMERIS_TYPE":0,"CLASSIFICATION_TYPE":"U","NORAD_CAT_ID":64891,"ELEMENT_SET_NO":999,"REV_AT_EPOCH":6562,"BSTAR":0.00068639307,"MEAN_MOTION_DOT":0.00020065,"MEAN_MOTION_DDOT":0}]
